#aV2006  3 24  0  0   .00000000      96 DD+AD WGS84 FIT  NGA
## 1367 432000.00000000   900.00000000 53818  .0000000000000
+   29     1  2  3  4  5  6  7  8  9 10 11 13 14 15 16 17 18
+         19 20 21 22 23 24 25 26 27 28 29 30  0  0  0  0  0
+          0  0  0  0  0  0  0  0  0  0  0  0  0  0  0  0  0
+          0  0  0  0  0  0  0  0  0  0  0  0  0  0  0  0  0
+          0  0  0  0  0  0  0  0  0  0  0  0  0  0  0  0  0
++         0  0  0  0  0  0  0  0  0  0  0  0  0  0  0  0  0
++         0  0  0  0  0  0  0  0  0  0  0  0  0  0  0  0  0
++         0  0  0  0  0  0  0  0  0  0  0  0  0  0  0  0  0
++         0  0  0  0  0  0  0  0  0  0  0  0  0  0  0  0  0
++         0  0  0  0  0  0  0  0  0  0  0  0  0  0  0  0  0
%c cc cc ccc ccc cccc cccc cccc cccc ccccc ccccc ccccc ccccc
%c cc cc ccc ccc cccc cccc cccc cccc ccccc ccccc ccccc ccccc
%f  0.0000000  0.000000000  0.00000000000  0.000000000000000
%f  0.0000000  0.000000000  0.00000000000  0.000000000000000
%i    0    0    0    0      0      0      0      0         0
%i    0    0    0    0      0      0      0      0         0
/*      NGA, ST. LOUIS,MO.                                  
/*   EPHEMERIS COMPUTED FROM  3 DAYS OF DATA                
/* CCCCCCCCCCCCCCCCCCCCCCCCCCCCCCCCCCCCCCCCCCCCCCCCCCCCCCCCC
/* CCCCCCCCCCCCCCCCCCCCCCCCCCCCCCCCCCCCCCCCCCCCCCCCCCCCCCCCC
*  2006  3 24 12 45   .00000000                                                 
P  1  15724.789727  14816.037492  15674.019175     43.139923                    
V  1 -19172.177427  -3662.410405  22944.577412       .022036                    
P  2 -12832.677487 -22126.214209  -7774.611624    -12.897788                    
V  2   -256.769784  -9857.255292  29326.004920       .019602                    
P  3  20750.403439  11830.106682 -12088.612156     84.434438                    
V  3 -15321.549824    990.179537 -25372.828799       .031543                    
P  4  -6012.600039 -25584.764871   2065.620374    185.852953                    
V  4   4074.758138   1608.497135  31604.229383       .106732                    
P  5 -20268.723298   8903.735683  14358.082476   -291.151938                    
V  5   9273.585268 -16467.240931  23159.512460       .746514                    
P  6 -19728.986949   8086.885463 -15692.126756    425.341119                    
V  6 -19512.707027  -6201.027411  20999.105627       .271548                    
P  7 -14329.692911  11718.944000 -18798.960891    518.442061                    
V  7 -24015.975435  -5557.639747  14398.977859       .059784                    
P  8   1241.107065 -24013.583610 -10963.111993    -60.446079                    
V  8   5937.021580  12718.738061 -27937.636395      -.012908                    
P  9 -16382.127392  -4115.345661  20030.944084     13.179539                    
V  9  -8015.780460 -25357.496311 -11179.230502       .015332                    
P 10 -12203.069318  -8820.226419 -21985.498882     80.667044                    
V 10  19081.851318 -19992.041095  -2274.384167       .006175                    
P 11  17910.432892   1254.726163  19566.449425    315.712159                    
V 11   9586.814445  23356.799441  -9990.075354       .026585                    
P 13  18006.935733  -7687.078061 -17995.242958     49.643736                    
V 13  21726.297945   6480.350312  19114.463741       .026395                    
P 14    741.665289  15083.552459  21920.889961    -17.260703                    
V 14 -26940.817009  -5977.482658   4996.354745       .006916                    
P 15  -2472.710117  23856.126231 -11144.431019    585.374571                    
V 15  -5895.404243 -13044.189464 -27399.990063       .061172                    
P 16   6558.972485  14549.488478 -21128.783872     32.846920                    
V 16 -18957.217559  19298.375619   7467.825364       .020852                    
P 17    910.391062 -15316.365982  21667.187171     72.879030                    
V 17  26945.117676   5746.508619   2840.739242       .057229                    
P 18 -18043.418724  19235.180982   1228.910209   -227.353493                    
V 18  -3249.293278  -1187.027258 -31852.980699      -.019392                    
P 19  25674.639102   6858.457582    630.441061    -17.826804                    
V 19   -132.859505   2937.193430 -31667.059459       .013028                    
P 20  20898.406265  -8807.030136  13708.329568    -30.013991                    
V 20 -10056.725931  14596.947098  24582.365962       .007951                    
P 21  -8328.131398  17814.796556 -17562.488164     15.940402                    
V 21  -8117.440353 -21255.592390 -18178.372826       .030468                    
P 22  -8373.416410  21457.160502  13379.583792     78.928802                    
V 22 -13557.597985  10097.629668 -24965.696526       .032919                    
P 23  25298.963004   -374.941747  -8421.649731    146.143346                    
V 23   9788.277916   4461.736409  29371.510980      -.012128                    
P 24   4827.905198 -21756.155179  14494.526607     95.254786                    
V 24   6693.692101  16964.250582  23866.278355       .029636                    
P 25  10021.696286  24524.966104    356.414427     -9.780312                    
V 25  -2923.965427   1255.154004  31652.121112       .162503                    
P 26 -25053.520892  -8997.813441  -4137.118903    -67.844015                    
V 26   4862.911230   -169.263619 -31432.930179      -.098884                    
P 27   6609.202417 -17810.927108 -17816.043760     41.258650                    
V 27  10427.002657  21690.444315 -17581.237568       .016894                    
P 28  10574.339934 -21872.007234  10587.881671     30.872604                    
V 28  11003.950219  -7690.877475 -27946.722460      -.007410                    
P 29 -23620.492958  -9913.279485  -7284.312139    568.783144                    
V 29   9638.273144    272.423248 -30345.872388       .096614                    
P 30 -19670.574804  16743.679634   5637.193506     36.261004                    
V 30   2349.476274  -7920.987625  30358.340990       .625923                    
EOF
